[
    {
        "Altitude(m)": 571549.2628440907,
        "Argument of Periapsis(deg)": 0.0,
        "Eccentricity": 0.0,
        "Inclination(deg)": 53.0,
        "Latitude(deg)": -52.388074162386204,
        "Longitude(deg)": 103.43696303516695,
        "Mean Anomaly(deg)": -81.8182,
        "RAAN(deg)": 280.0,
        "Satellite Name": "Starlink Shell 1 1249",
        "Satellite Number": 1249,
        "Semi-Major Axis(m)": 6931778.249405717,
        "Time(s)": 0
    },
    {
        "Altitude(m)": 571502.6078440213,
        "Argument of Periapsis(deg)": 0.00034857847951123687,
        "Eccentricity": 0.0,
        "Inclination(deg)": 53.0,
        "Latitude(deg)": -52.26812326877482,
        "Longitude(deg)": 104.39612484494401,
        "Mean Anomaly(deg)": -81.19136879644334,
        "RAAN(deg)": 279.9994812299225,
        "Satellite Name": "Starlink Shell 1 1249",
        "Satellite Number": 1249,
        "Semi-Major Axis(m)": 6931778.249405717,
        "Time(s)": 10
    },
    {
        "Altitude(m)": 571452.6079506144,
        "Argument of Periapsis(deg)": 0.0006971569590224737,
        "Eccentricity": 0.0,
        "Inclination(deg)": 53.0,
        "Latitude(deg)": -52.13974323484365,
        "Longitude(deg)": 105.3497226678724,
        "Mean Anomaly(deg)": -80.56453759288651,
        "RAAN(deg)": 279.9989624598451,
        "Satellite Name": "Starlink Shell 1 1249",
        "Satellite Number": 1249,
        "Semi-Major Axis(m)": 6931778.249405717,
        "Time(s)": 20
    },
    {
        "Altitude(m)": 571399.2830794973,
        "Argument of Periapsis(deg)": 0.0010457354385337105,
        "Eccentricity": 0.0,
        "Inclination(deg)": 53.0,
        "Latitude(deg)": -52.00302022029249,
        "Longitude(deg)": 106.29744201684795,
        "Mean Anomaly(deg)": -79.93770638932982,
        "RAAN(deg)": 279.99844368976756,
        "Satellite Name": "Starlink Shell 1 1249",
        "Satellite Number": 1249,
        "Semi-Major Axis(m)": 6931778.249405717,
        "Time(s)": 30
    },
    {
        "Altitude(m)": 571342.6544684822,
        "Argument of Periapsis(deg)": 0.0013943139180449475,
        "Eccentricity": 0.0,
        "Inclination(deg)": 53.0,
        "Latitude(deg)": -51.85804471831107,
        "Longitude(deg)": 107.23898384847558,
        "Mean Anomaly(deg)": -79.31087518577314,
        "RAAN(deg)": 279.99792491969004,
        "Satellite Name": "Starlink Shell 1 1249",
        "Satellite Number": 1249,
        "Semi-Major Axis(m)": 6931778.249405717,
        "Time(s)": 40
    },
    {
        "Altitude(m)": 571282.7446683419,
        "Argument of Periapsis(deg)": 0.0017428923975561844,
        "Eccentricity": 0.0,
        "Inclination(deg)": 53.0,
        "Latitude(deg)": -51.704911283535544,
        "Longitude(deg)": 108.1740639698426,
        "Mean Anomaly(deg)": -78.68404398221642,
        "RAAN(deg)": 279.99740614961263,
        "Satellite Name": "Starlink Shell 1 1249",
        "Satellite Number": 1249,
        "Semi-Major Axis(m)": 6931778.249405717,
        "Time(s)": 50
    },
    {
        "Altitude(m)": 571219.5775330696,
        "Argument of Periapsis(deg)": 0.002091470877067421,
        "Eccentricity": 0.0,
        "Inclination(deg)": 53.0,
        "Latitude(deg)": -51.54371825522986,
        "Longitude(deg)": 109.10241387344645,
        "Mean Anomaly(deg)": -78.05721277865976,
        "RAAN(deg)": 279.99688737953517,
        "Satellite Name": "Starlink Shell 1 1249",
        "Satellite Number": 1249,
        "Semi-Major Axis(m)": 6931778.249405717,
        "Time(s)": 60
    },
    {
        "Altitude(m)": 571153.1782095256,
        "Argument of Periapsis(deg)": 0.0024400493565786582,
        "Eccentricity": 0.0,
        "Inclination(deg)": 53.0,
        "Latitude(deg)": -51.374567477377944,
        "Longitude(deg)": 110.02378148905034,
        "Mean Anomaly(deg)": -77.43038157510298,
        "RAAN(deg)": 279.99636860945765,
        "Satellite Name": "Starlink Shell 1 1249",
        "Satellite Number": 1249,
        "Semi-Major Axis(m)": 6931778.249405717,
        "Time(s)": 70
    },
    {
        "Altitude(m)": 571083.5731265346,
        "Argument of Periapsis(deg)": 0.002788627836089895,
        "Eccentricity": 0.0,
        "Inclination(deg)": 53.0,
        "Latitude(deg)": -51.19756401732144,
        "Longitude(deg)": 110.93793034184516,
        "Mean Anomaly(deg)": -76.80355037154634,
        "RAAN(deg)": 279.99584983938024,
        "Satellite Name": "Starlink Shell 1 1249",
        "Satellite Number": 1249,
        "Semi-Major Axis(m)": 6931778.249405717,
        "Time(s)": 80
    },
    {
        "Altitude(m)": 571010.7899834317,
        "Argument of Periapsis(deg)": 0.0031372063156011316,
        "Eccentricity": 0.0,
        "Inclination(deg)": 53.0,
        "Latitude(deg)": -51.0128158845072,
        "Longitude(deg)": 111.84464014553595,
        "Mean Anomaly(deg)": -76.17671916798956,
        "RAAN(deg)": 279.9953310693027,
        "Satellite Name": "Starlink Shell 1 1249",
        "Satellite Number": 1249,
        "Semi-Major Axis(m)": 6931778.249405717,
        "Time(s)": 90
    },
    {
        "Altitude(m)": 570934.8577380492,
        "Argument of Periapsis(deg)": 0.0034857847951123688,
        "Eccentricity": 0.0,
        "Inclination(deg)": 53.0,
        "Latitude(deg)": -50.82043375082064,
        "Longitude(deg)": 112.74370732090338,
        "Mean Anomaly(deg)": -75.5498879644328,
        "RAAN(deg)": 279.99481229922526,
        "Satellite Name": "Starlink Shell 1 1249",
        "Satellite Number": 1249,
        "Semi-Major Axis(m)": 6931778.249405717,
        "Time(s)": 100
    },
    {
        "Altitude(m)": 570855.8065941335,
        "Argument of Periapsis(deg)": 0.003834363274623606,
        "Eccentricity": 0.0,
        "Inclination(deg)": 53.0,
        "Latitude(deg)": -50.62053067388635,
        "Longitude(deg)": 113.63494393086506,
        "Mean Anomaly(deg)": -74.92305676087618,
        "RAAN(deg)": 279.9942935291478,
        "Satellite Name": "Starlink Shell 1 1249",
        "Satellite Number": 1249,
        "Semi-Major Axis(m)": 6931778.249405717,
        "Time(s)": 110
    },
    {
        "Altitude(m)": 570773.6679882476,
        "Argument of Periapsis(deg)": 0.004182941754134842,
        "Eccentricity": 0.0,
        "Inclination(deg)": 53.0,
        "Latitude(deg)": -50.41322182461443,
        "Longitude(deg)": 114.51817806206047,
        "Mean Anomaly(deg)": -74.2962255573194,
        "RAAN(deg)": 279.9937747590703,
        "Satellite Name": "Starlink Shell 1 1249",
        "Satellite Number": 1249,
        "Semi-Major Axis(m)": 6931778.249405717,
        "Time(s)": 120
    },
    {
        "Altitude(m)": 570688.4745761162,
        "Argument of Periapsis(deg)": 0.004531520233646079,
        "Eccentricity": 0.0,
        "Inclination(deg)": 53.0,
        "Latitude(deg)": -50.19862422016242,
        "Longitude(deg)": 115.39325414468024,
        "Mean Anomaly(deg)": -73.66939435376271,
        "RAAN(deg)": 279.9932559889928,
        "Satellite Name": "Starlink Shell 1 1249",
        "Satellite Number": 1249,
        "Semi-Major Axis(m)": 6931778.249405717,
        "Time(s)": 130
    },
    {
        "Altitude(m)": 570600.2602184184,
        "Argument of Periapsis(deg)": 0.0048800987131573164,
        "Eccentricity": 0.0,
        "Inclination(deg)": 53.0,
        "Latitude(deg)": -49.976856463365735,
        "Longitude(deg)": 116.26003170250044,
        "Mean Anomaly(deg)": -73.04256315020598,
        "RAAN(deg)": 279.9927372189154,
        "Satellite Name": "Starlink Shell 1 1249",
        "Satellite Number": 1249,
        "Semi-Major Axis(m)": 6931778.249405717,
        "Time(s)": 140
    },
    {
        "Altitude(m)": 570509.0599660927,
        "Argument of Periapsis(deg)": 0.005228677192668553,
        "Eccentricity": 0.0,
        "Inclination(deg)": 53.0,
        "Latitude(deg)": -49.74803848957963,
        "Longitude(deg)": 117.11838556384488,
        "Mean Anomaly(deg)": -72.41573194664932,
        "RAAN(deg)": 279.9922184488379,
        "Satellite Name": "Starlink Shell 1 1249",
        "Satellite Number": 1249,
        "Semi-Major Axis(m)": 6931778.249405717,
        "Time(s)": 150
    },
    {
        "Altitude(m)": 570414.9100450728,
        "Argument of Periapsis(deg)": 0.00557725567217979,
        "Eccentricity": 0.0,
        "Inclination(deg)": 53.0,
        "Latitude(deg)": -49.51229132175481,
        "Longitude(deg)": 117.96820602568252,
        "Mean Anomaly(deg)": -71.78890074309265,
        "RAAN(deg)": 279.99169967876037,
        "Satellite Name": "Starlink Shell 1 1249",
        "Satellite Number": 1249,
        "Semi-Major Axis(m)": 6931778.249405717,
        "Time(s)": 160
    },
    {
        "Altitude(m)": 570317.8478405353,
        "Argument of Periapsis(deg)": 0.0059258341516910265,
        "Eccentricity": 0.0,
        "Inclination(deg)": 53.0,
        "Latitude(deg)": -49.26973683445505,
        "Longitude(deg)": 118.80939746308721,
        "Mean Anomaly(deg)": -71.16206953953584,
        "RAAN(deg)": 279.99118090868296,
        "Satellite Name": "Starlink Shell 1 1249",
        "Satellite Number": 1249,
        "Semi-Major Axis(m)": 6931778.249405717,
        "Time(s)": 170
    },
    {
        "Altitude(m)": 570217.9118806319,
        "Argument of Periapsis(deg)": 0.006274412631202263,
        "Eccentricity": 0.0,
        "Inclination(deg)": 53.0,
        "Latitude(deg)": -49.02049752741451,
        "Longitude(deg)": 119.64187841486365,
        "Mean Anomaly(deg)": -70.53523833597913,
        "RAAN(deg)": 279.9906621386055,
        "Satellite Name": "Starlink Shell 1 1249",
        "Satellite Number": 1249,
        "Semi-Major Axis(m)": 6931778.249405717,
        "Time(s)": 180
    }
]